[{"OBJECT_NAME":"YAOGAN-28","OBJECT_ID":"2015-064A","EPOCH":"2026-03-09T23:07:10.370208","MEAN_MOTION":15.26008,"ECCENTRICITY":0.00111911,"INCLINATION":97.2901,"RA_OF_ASC_NODE":209.4389,"ARG_OF_PERICENTER":175.4532,"MEAN_ANOMALY":184.6811,"EPHEMERIS_TYPE":0,"CLASSIFICATION_TYPE":"U","NORAD_CAT_ID":41026,"ELEMENT_SET_NO":999,"REV_AT_EPOCH":57554,"BSTAR":0.00039691695,"MEAN_MOTION_DOT":0.00010159,"MEAN_MOTION_DDOT":0},{"OBJECT_NAME":"STARLINK-35782","OBJECT_ID":"2025-303V","EPOCH":"2026-03-09T01:32:42.171936","MEAN_MOTION":15.27563799,"ECCENTRICITY":0.00017939,"INCLINATION":43.003,"RA_OF_ASC_NODE":313.8882,"ARG_OF_PERICENTER":254.3565,"MEAN_ANOMALY":105.7089,"EPHEMERIS_TYPE":0,"CLASSIFICATION_TYPE":"U","NORAD_CAT_ID":67182,"ELEMENT_SET_NO":999,"REV_AT_EPOCH":1264,"BSTAR":0.00088479998,"MEAN_MOTION_DOT":0.00024154,"MEAN_MOTION_DDOT":0}]
